[{"OBJECT_NAME":"ICEYE-X7","OBJECT_ID":"2020-068L","EPOCH":"2026-03-09T22:52:28.702272","MEAN_MOTION":15.29152508,"ECCENTRICITY":0.00068409,"INCLINATION":97.7412,"RA_OF_ASC_NODE":31.2076,"ARG_OF_PERICENTER":332.3045,"MEAN_ANOMALY":27.7829,"EPHEMERIS_TYPE":0,"CLASSIFICATION_TYPE":"U","NORAD_CAT_ID":46496,"ELEMENT_SET_NO":999,"REV_AT_EPOCH":29961,"BSTAR":0.0005654802,"MEAN_MOTION_DOT":0.00015947,"MEAN_MOTION_DDOT":0},{"OBJECT_NAME":"STARLINK-35391","OBJECT_ID":"2025-270AE","EPOCH":"2026-03-09T22:55:30.056736","MEAN_MOTION":15.27597344,"ECCENTRICITY":0.00012095,"INCLINATION":43.002,"RA_OF_ASC_NODE":54.9184,"ARG_OF_PERICENTER":183.6538,"MEAN_ANOMALY":176.4305,"EPHEMERIS_TYPE":0,"CLASSIFICATION_TYPE":"U","NORAD_CAT_ID":66616,"ELEMENT_SET_NO":999,"REV_AT_EPOCH":1785,"BSTAR":0.0012332792,"MEAN_MOTION_DOT":0.00033849,"MEAN_MOTION_DDOT":0}]
